[{"OBJECT_NAME":"SPOT 6","OBJECT_ID":"2012-047A","EPOCH":"2026-03-09T22:20:19.799808","MEAN_MOTION":14.58541829,"ECCENTRICITY":0.00015044,"INCLINATION":98.2215,"RA_OF_ASC_NODE":137.359,"ARG_OF_PERICENTER":93.8151,"MEAN_ANOMALY":266.322,"EPHEMERIS_TYPE":0,"CLASSIFICATION_TYPE":"U","NORAD_CAT_ID":38755,"ELEMENT_SET_NO":999,"REV_AT_EPOCH":71858,"BSTAR":8.0762181e-5,"MEAN_MOTION_DOT":3.29e-6,"MEAN_MOTION_DDOT":0},{"OBJECT_NAME":"CENTISPACE-1 S1","OBJECT_ID":"2018-075A","EPOCH":"2026-03-09T22:27:35.656704","MEAN_MOTION":14.59881331,"ECCENTRICITY":0.00099543,"INCLINATION":97.8837,"RA_OF_ASC_NODE":97.6295,"ARG_OF_PERICENTER":76.115,"MEAN_ANOMALY":284.1158,"EPHEMERIS_TYPE":0,"CLASSIFICATION_TYPE":"U","NORAD_CAT_ID":43636,"ELEMENT_SET_NO":999,"REV_AT_EPOCH":39607,"BSTAR":0.00015220706,"MEAN_MOTION_DOT":6.85e-6,"MEAN_MOTION_DDOT":0}]
